COMMENT,ORIGINATOR,NORAD_CAT_ID,OBJECT_NAME,OBJECT_TYPE,CLASSIFICATION_TYPE,INTLDES,EPOCH,EPOCH_MICROSECONDS,MEAN_MOTION,ECCENTRICITY,INCLINATION,RA_OF_ASC_NODE,ARG_OF_PERICENTER,MEAN_ANOMALY,EPHEMERIS_TYPE,ELEMENT_SET_NO,REV_AT_EPOCH,BSTAR,MEAN_MOTION_DOT,MEAN_MOTION_DDOT,FILE,TLE_LINE0,TLE_LINE1,TLE_LINE2,OBJECT_ID,OBJECT_NUMBER,SEMIMAJOR_AXIS,PERIOD,APOGEE,PERIGEE,DECAYED
"GENERATED VIA SPACETRACK.ORG API","18 SPCS","48893","SPACEBEE-106","PAYLOAD","U","21059Q","2023-09-13 21:56:19","231008","15.37538003","0.0005397","97.6057","36.5509","314.1501","45.9299","0","999","12299","0.0014048","0.0005196","0","4005648","0 SPACEBEE-106","1 48893U 21059Q   23256.91411147  .00051960  00000-0  14048-2 0  9995","2 48893  97.6057  36.5509 0005397 314.1501  45.9299 15.37538003122991","2021-059Q","48893","6831.529","93.656","457.081","449.707","0"
"GENERATED VIA SPACETRACK.ORG API","18 SPCS","48893","SPACEBEE-106","PAYLOAD","U","21059Q","2023-09-13 21:56:19","231008","15.37538003","0.0005397","97.6057","36.5509","314.1501","45.9299","0","999","12299","0.0014048","0.0005196","0","4005721","0 SPACEBEE-106","1 48893U 21059Q   23256.91411147  .00051960  00000-0  14048-2 0  9995","2 48893  97.6057  36.5509 0005397 314.1501  45.9299 15.37538003122991","2021-059Q","48893","6831.529","93.656","457.081","449.707","0"
"GENERATED VIA SPACETRACK.ORG API","18 SPCS","48893","SPACEBEE-106","PAYLOAD","U","21059Q","2023-09-14 08:52:19","644384","15.37585326","0.0005378","97.606","37.0222","311.3075","48.7706","0","999","12306","0.0013806","0.00051136","0","4006374","0 SPACEBEE-106","1 48893U 21059Q   23257.36967181  .00051136  00000-0  13806-2 0  9995","2 48893  97.6060  37.0222 0005378 311.3075  48.7706 15.37585326123060","2021-059Q","48893","6831.389","93.653","456.928","449.580","0"
"GENERATED VIA SPACETRACK.ORG API","18 SPCS","48893","SPACEBEE-106","PAYLOAD","U","21059Q","2023-09-14 21:22:01","678080","15.37628726","0.0005476","97.6061","37.5615","310.0653","50.0111","0","999","12314","0.0011894","0.00044064","0","4006631","0 SPACEBEE-106","1 48893U 21059Q   23257.89029720  .00044064  00000-0  11894-2 0  9998","2 48893  97.6061  37.5615 0005476 310.0653  50.0111 15.37628726123146","2021-059Q","48893","6831.261","93.651","456.866","449.385","0"
"GENERATED VIA SPACETRACK.ORG API","18 SPCS","48893","SPACEBEE-106","PAYLOAD","U","21059Q","2023-09-14 21:22:01","678080","15.37628726","0.0005476","97.6061","37.5615","310.0653","50.0111","0","999","12314","0.0011894","0.00044064","0","4006734","0 SPACEBEE-106","1 48893U 21059Q   23257.89029720  .00044064  00000-0  11894-2 0  9998","2 48893  97.6061  37.5615 0005476 310.0653  50.0111 15.37628726123146","2021-059Q","48893","6831.261","93.651","456.866","449.385","0"
"GENERATED VIA SPACETRACK.ORG API","18 SPCS","48893","SPACEBEE-106","PAYLOAD","U","21059Q","2023-09-15 08:17:59","775072","15.37675391","0.0005451","97.6064","38.0329","307.7729","52.3021","0","999","12321","0.0013909","0.00051672","0","4007228","0 SPACEBEE-106","1 48893U 21059Q   23258.34583073  .00051672  00000-0  13909-2 0  9997","2 48893  97.6064  38.0329 0005451 307.7729  52.3021 15.37675391123210","2021-059Q","48893","6831.122","93.648","456.711","449.264","0"
"GENERATED VIA SPACETRACK.ORG API","18 SPCS","48893","SPACEBEE-106","PAYLOAD","U","21059Q","2023-09-15 22:21:21","456576","15.37725141","0.000546","97.6066","38.6395","306.4256","53.6484","0","999","12330","0.0011733","0.00043599","0","4007642","0 SPACEBEE-106","1 48893U 21059Q   23258.93149834  .00043599  00000-0  11733-2 0  9997","2 48893  97.6066  38.6395 0005460 306.4256  53.6484 15.37725141123308","2021-059Q","48893","6830.975","93.645","456.570","449.110","0"
"GENERATED VIA SPACETRACK.ORG API","18 SPCS","48893","SPACEBEE-106","PAYLOAD","U","21059Q","2023-09-16 09:17:17","59200","15.37770965","0.0005512","97.6065","39.111","305.0333","55.0394","0","999","12337","0.0012822","0.00047751","0","4008138","0 SPACEBEE-106","1 48893U 21059Q   23259.38700300  .00047751  00000-0  12822-2 0  9992","2 48893  97.6065  39.1110 0005512 305.0333  55.0394 15.37770965123374","2021-059Q","48893","6830.839","93.642","456.469","448.939","0"
"GENERATED VIA SPACETRACK.ORG API","18 SPCS","48893","SPACEBEE-106","PAYLOAD","U","21059Q","2023-09-17 08:42:47","130336","15.37860358","0.0005507","97.6069","40.1225","301.5343","58.5363","0","999","12352","0.0014262","0.00053316","0","4008915","0 SPACEBEE-106","1 48893U 21059Q   23260.36304549  .00053316  00000-0  14262-2 0  9991","2 48893  97.6069  40.1225 0005507 301.5343  58.5363 15.37860358123520","2021-059Q","48893","6830.575","93.637","456.201","448.678","0"
"GENERATED VIA SPACETRACK.ORG API","18 SPCS","48893","SPACEBEE-106","PAYLOAD","U","21059Q","2023-09-18 08:08:11","931936","15.37960653","0.0005518","97.6071","41.1335","297.6391","62.4293","0","999","12367","0.0015069","0.00056545","0","4009863","0 SPACEBEE-106","1 48893U 21059Q   23261.33902699  .00056545  00000-0  15069-2 0  9992","2 48893  97.6071  41.1335 0005518 297.6391  62.4293 15.37960653123677","2021-059Q","48893","6830.278","93.630","455.912","448.374","0"
"GENERATED VIA SPACETRACK.ORG API","18 SPCS","48893","SPACEBEE-106","PAYLOAD","U","21059Q","2023-09-18 20:37:42","782880","15.38020964","0.0005532","97.6073","41.6731","296.3973","63.6704","0","999","12375","0.001578","0.00059354","0","4010122","0 SPACEBEE-106","1 48893U 21059Q   23261.85952295  .00059354  00000-0  15780-2 0  9997","2 48893  97.6073  41.6731 0005532 296.3973  63.6704 15.38020964123754","2021-059Q","48893","6830.099","93.627","455.743","448.186","0"
"GENERATED VIA SPACETRACK.ORG API","18 SPCS","48893","SPACEBEE-106","PAYLOAD","U","21059Q","2023-09-18 20:37:42","782880","15.38020964","0.0005532","97.6073","41.6731","296.3973","63.6704","0","999","12375","0.001578","0.00059354","0","4010257","0 SPACEBEE-106","1 48893U 21059Q   23261.85952295  .00059354  00000-0  15780-2 0  9997","2 48893  97.6073  41.6731 0005532 296.3973  63.6704 15.38020964123754","2021-059Q","48893","6830.099","93.627","455.743","448.186","0"
"GENERATED VIA SPACETRACK.ORG API","18 SPCS","48893","SPACEBEE-106","PAYLOAD","U","21059Q","2023-09-19 09:07:11","401248","15.38102924","0.0005469","97.6071","42.2123","294.1526","65.9146","0","999","12383","0.0014287","0.00053834","0","4010582","0 SPACEBEE-106","1 48893U 21059Q   23262.37999307  .00053834  00000-0  14287-2 0  9998","2 48893  97.6071  42.2123 0005469 294.1526  65.9146 15.38102924123834","2021-059Q","48893","6829.856","93.622","455.457","447.986","0"
"GENERATED VIA SPACETRACK.ORG API","18 SPCS","48893","SPACEBEE-106","PAYLOAD","U","21059Q","2023-09-20 00:43:59","155392","15.38192018","0.0005696","97.6074","42.8866","291.9261","68.1378","0","999","12393","0.0016755","0.00063412","0","4011240","0 SPACEBEE-106","1 48893U 21059Q   23263.03054578  .00063412  00000-0  16755-2 0  9999","2 48893  97.6074  42.8866 0005696 291.9261  68.1378 15.38192018123936","2021-059Q","48893","6829.593","93.616","455.348","447.568","0"
"GENERATED VIA SPACETRACK.ORG API","18 SPCS","48893","SPACEBEE-106","PAYLOAD","U","21059Q","2023-09-20 08:32:22","22880","15.38225928","0.0005693","97.6076","43.2235","290.3294","69.7339","0","999","12398","0.0015853","0.00060034","0","4011740","0 SPACEBEE-106","1 48893U 21059Q   23263.35581045  .00060034  00000-0  15853-2 0  9993","2 48893  97.6076  43.2235 0005693 290.3294  69.7339 15.38225928123985","2021-059Q","48893","6829.492","93.614","455.245","447.469","0"
"GENERATED VIA SPACETRACK.ORG API","18 SPCS","48893","SPACEBEE-106","PAYLOAD","U","21059Q","2023-09-20 14:47:03","788448","15.38251877","0.000568","97.6075","43.4937","290.0792","69.984","0","999","12402","0.0016038","0.00060792","0","4011833","0 SPACEBEE-106","1 48893U 21059Q   23263.61601607  .00060792  00000-0  16038-2 0  9996","2 48893  97.6075  43.4937 0005680 290.0792  69.9840 15.38251877124028","2021-059Q","48893","6829.416","93.613","455.160","447.401","0"
"GENERATED VIA SPACETRACK.ORG API","18 SPCS","48893","SPACEBEE-106","PAYLOAD","U","21059Q","2023-09-20 21:01:45","175584","15.38279178","0.0005716","97.6075","43.7634","289.5503","70.5124","0","999","12406","0.0013474","0.0005104","0","4012054","0 SPACEBEE-106","1 48893U 21059Q   23263.87621731  .00051040  00000-0  13474-2 0  9991","2 48893  97.6075  43.7634 0005716 289.5503  70.5124 15.38279178124069","2021-059Q","48893","6829.335","93.611","455.103","447.296","0"
"GENERATED VIA SPACETRACK.ORG API","18 SPCS","48893","SPACEBEE-106","PAYLOAD","U","21059Q","2023-09-21 07:57:26","553312","15.38332524","0.0005647","97.6073","44.2351","287.2833","72.7794","0","999","12413","0.0014395","0.00054655","0","4012680","0 SPACEBEE-106","1 48893U 21059Q   23264.33155733  .00054655  00000-0  14395-2 0  9995","2 48893  97.6073  44.2351 0005647 287.2833  72.7794 15.38332524124133","2021-059Q","48893","6829.177","93.608","454.898","447.185","0"
"GENERATED VIA SPACETRACK.ORG API","18 SPCS","48893","SPACEBEE-106","PAYLOAD","U","21059Q","2023-09-21 07:57:26","553312","15.38332524","0.0005647","97.6073","44.2351","287.2833","72.7794","0","999","12413","0.0014395","0.00054655","0","4012838","0 SPACEBEE-106","1 48893U 21059Q   23264.33155733  .00054655  00000-0  14395-2 0  9995","2 48893  97.6073  44.2351 0005647 287.2833  72.7794 15.38332524124133","2021-059Q","48893","6829.177","93.608","454.898","447.185","0"
"GENERATED VIA SPACETRACK.ORG API","18 SPCS","48893","SPACEBEE-106","PAYLOAD","U","21059Q","2023-09-21 22:00:26","631360","15.38387983","0.0005675","97.6071","44.8425","286.3192","73.7429","0","999","12422","0.0013951","0.00053051","0","4012956","0 SPACEBEE-106","1 48893U 21059Q   23264.91697490  .00053051  00000-0  13951-2 0  9996","2 48893  97.6071  44.8425 0005675 286.3192  73.7429 15.38387983124223","2021-059Q","48893","6829.013","93.604","454.753","447.002","0"
